[{"OBJECT_NAME":"THEMIS D","OBJECT_ID":"2007-004D","EPOCH":"2023-04-25T14:27:22.550976","MEAN_MOTION":0.87773063,"ECCENTRICITY":0.8292466,"INCLINATION":7.8278,"RA_OF_ASC_NODE":296.3213,"ARG_OF_PERICENTER":249.8368,"MEAN_ANOMALY":37.029,"EPHEMERIS_TYPE":0,"CLASSIFICATION_TYPE":"U","NORAD_CAT_ID":30797,"ELEMENT_SET_NO":999,"REV_AT_EPOCH":5539,"BSTAR":0,"MEAN_MOTION_DOT":-5.93e-6,"MEAN_MOTION_DDOT":0},{"OBJECT_NAME":"THEMIS E","OBJECT_ID":"2007-004E","EPOCH":"2023-04-26T15:39:20.058336","MEAN_MOTION":0.87831862,"ECCENTRICITY":0.8293947,"INCLINATION":8.9966,"RA_OF_ASC_NODE":314.5415,"ARG_OF_PERICENTER":233.4764,"MEAN_ANOMALY":22.8915,"EPHEMERIS_TYPE":0,"CLASSIFICATION_TYPE":"U","NORAD_CAT_ID":30798,"ELEMENT_SET_NO":999,"REV_AT_EPOCH":5583,"BSTAR":0,"MEAN_MOTION_DOT":-6.28e-6,"MEAN_MOTION_DDOT":0},{"OBJECT_NAME":"AIM","OBJECT_ID":"2007-015A","EPOCH":"2023-04-26T18:00:27.779328","MEAN_MOTION":15.27874409,"ECCENTRICITY":0.0004415,"INCLINATION":97.8682,"RA_OF_ASC_NODE":54.5673,"ARG_OF_PERICENTER":40.3133,"MEAN_ANOMALY":319.8432,"EPHEMERIS_TYPE":0,"CLASSIFICATION_TYPE":"U","NORAD_CAT_ID":31304,"ELEMENT_SET_NO":999,"REV_AT_EPOCH":87882,"BSTAR":0.00068333,"MEAN_MOTION_DOT":0.00018546,"MEAN_MOTION_DDOT":0},{"OBJECT_NAME":"FGRST (GLAST)","OBJECT_ID":"2008-029A","EPOCH":"2023-04-26T21:20:36.638016","MEAN_MOTION":15.13803916,"ECCENTRICITY":0.0011377,"INCLINATION":25.5814,"RA_OF_ASC_NODE":187.9249,"ARG_OF_PERICENTER":213.7516,"MEAN_ANOMALY":146.2296,"EPHEMERIS_TYPE":0,"CLASSIFICATION_TYPE":"U","NORAD_CAT_ID":33053,"ELEMENT_SET_NO":999,"REV_AT_EPOCH":82121,"BSTAR":0.00016067,"MEAN_MOTION_DOT":3.288e-5,"MEAN_MOTION_DDOT":0},{"OBJECT_NAME":"WISE","OBJECT_ID":"2009-071A","EPOCH":"2023-04-26T12:34:18.971616","MEAN_MOTION":15.40487201,"ECCENTRICITY":8.53e-5,"INCLINATION":97.2015,"RA_OF_ASC_NODE":150.1417,"ARG_OF_PERICENTER":171.0055,"MEAN_ANOMALY":189.1207,"EPHEMERIS_TYPE":0,"CLASSIFICATION_TYPE":"U","NORAD_CAT_ID":36119,"ELEMENT_SET_NO":999,"REV_AT_EPOCH":74356,"BSTAR":0.00032565,"MEAN_MOTION_DOT":0.00013127,"MEAN_MOTION_DDOT":0},{"OBJECT_NAME":"TDRS 11","OBJECT_ID":"2013-004A","EPOCH":"2023-04-26T16:58:52.575744","MEAN_MOTION":1.00274671,"ECCENTRICITY":0.0006564,"INCLINATION":2.7293,"RA_OF_ASC_NODE":356.2692,"ARG_OF_PERICENTER":52.7495,"MEAN_ANOMALY":245.7478,"EPHEMERIS_TYPE":0,"CLASSIFICATION_TYPE":"U","NORAD_CAT_ID":39070,"ELEMENT_SET_NO":999,"REV_AT_EPOCH":3518,"BSTAR":0,"MEAN_MOTION_DOT":7.6e-7,"MEAN_MOTION_DDOT":0},{"OBJECT_NAME":"TDRS 12","OBJECT_ID":"2014-004A","EPOCH":"2023-04-27T01:35:42.592416","MEAN_MOTION":1.0027593,"ECCENTRICITY":0.0004151,"INCLINATION":3.6456,"RA_OF_ASC_NODE":353.552,"ARG_OF_PERICENTER":121.5616,"MEAN_ANOMALY":82.6672,"EPHEMERIS_TYPE":0,"CLASSIFICATION_TYPE":"U","NORAD_CAT_ID":39504,"ELEMENT_SET_NO":999,"REV_AT_EPOCH":3394,"BSTAR":0,"MEAN_MOTION_DOT":-2.74e-6,"MEAN_MOTION_DDOT":0},{"OBJECT_NAME":"GPM-CORE","OBJECT_ID":"2014-009C","EPOCH":"2023-04-26T21:00:55.065312","MEAN_MOTION":15.56607333,"ECCENTRICITY":0.0009204,"INCLINATION":64.9943,"RA_OF_ASC_NODE":201.2696,"ARG_OF_PERICENTER":265.5168,"MEAN_ANOMALY":94.4927,"EPHEMERIS_TYPE":0,"CLASSIFICATION_TYPE":"U","NORAD_CAT_ID":39574,"ELEMENT_SET_NO":999,"REV_AT_EPOCH":52037,"BSTAR":0.00038875,"MEAN_MOTION_DOT":0.00027702,"MEAN_MOTION_DDOT":0},{"OBJECT_NAME":"MMS 1","OBJECT_ID":"2015-011A","EPOCH":"2023-04-25T23:59:53.240064","MEAN_MOTION":0.28571413,"ECCENTRICITY":0.9075876,"INCLINATION":28.9525,"RA_OF_ASC_NODE":71.2753,"ARG_OF_PERICENTER":89.0401,"MEAN_ANOMALY":109.7676,"EPHEMERIS_TYPE":0,"CLASSIFICATION_TYPE":"U","NORAD_CAT_ID":40482,"ELEMENT_SET_NO":999,"REV_AT_EPOCH":1419,"BSTAR":0,"MEAN_MOTION_DOT":-1.054e-5,"MEAN_MOTION_DDOT":0},{"OBJECT_NAME":"MMS 2","OBJECT_ID":"2015-011B","EPOCH":"2023-04-25T15:59:53.240352","MEAN_MOTION":0.28573184,"ECCENTRICITY":0.9076022,"INCLINATION":28.9584,"RA_OF_ASC_NODE":71.323,"ARG_OF_PERICENTER":88.9828,"MEAN_ANOMALY":75.5223,"EPHEMERIS_TYPE":0,"CLASSIFICATION_TYPE":"U","NORAD_CAT_ID":40483,"ELEMENT_SET_NO":999,"REV_AT_EPOCH":1425,"BSTAR":0,"MEAN_MOTION_DOT":-1.085e-5,"MEAN_MOTION_DDOT":0},{"OBJECT_NAME":"MMS 3","OBJECT_ID":"2015-011C","EPOCH":"2023-04-24T15:40:53.539680","MEAN_MOTION":0.28577495,"ECCENTRICITY":0.9075421,"INCLINATION":28.9473,"RA_OF_ASC_NODE":71.4789,"ARG_OF_PERICENTER":88.827,"MEAN_ANOMALY":331.3483,"EPHEMERIS_TYPE":0,"CLASSIFICATION_TYPE":"U","NORAD_CAT_ID":40484,"ELEMENT_SET_NO":999,"REV_AT_EPOCH":1416,"BSTAR":0,"MEAN_MOTION_DOT":-1.147e-5,"MEAN_MOTION_DDOT":0},{"OBJECT_NAME":"MMS 4","OBJECT_ID":"2015-011D","EPOCH":"2023-04-24T15:50:53.540160","MEAN_MOTION":0.28575827,"ECCENTRICITY":0.9076133,"INCLINATION":28.9513,"RA_OF_ASC_NODE":71.4701,"ARG_OF_PERICENTER":88.8378,"MEAN_ANOMALY":332.05,"EPHEMERIS_TYPE":0,"CLASSIFICATION_TYPE":"U","NORAD_CAT_ID":40485,"ELEMENT_SET_NO":999,"REV_AT_EPOCH":1416,"BSTAR":0,"MEAN_MOTION_DOT":-1.148e-5,"MEAN_MOTION_DDOT":0},{"OBJECT_NAME":"TDRS 13","OBJECT_ID":"2017-047A","EPOCH":"2023-04-26T19:39:09.836640","MEAN_MOTION":1.00273203,"ECCENTRICITY":0.0017679,"INCLINATION":4.0653,"RA_OF_ASC_NODE":337.1604,"ARG_OF_PERICENTER":107.8738,"MEAN_ANOMALY":52.8288,"EPHEMERIS_TYPE":0,"CLASSIFICATION_TYPE":"U","NORAD_CAT_ID":42915,"ELEMENT_SET_NO":999,"REV_AT_EPOCH":2084,"BSTAR":0,"MEAN_MOTION_DOT":-1.05e-6,"MEAN_MOTION_DDOT":0},{"OBJECT_NAME":"JPSS-1","OBJECT_ID":"2017-073A","EPOCH":"2023-04-27T03:53:26.510496","MEAN_MOTION":14.19542777,"ECCENTRICITY":7.17e-5,"INCLINATION":98.7496,"RA_OF_ASC_NODE":56.2977,"ARG_OF_PERICENTER":95.6616,"MEAN_ANOMALY":264.4641,"EPHEMERIS_TYPE":0,"CLASSIFICATION_TYPE":"U","NORAD_CAT_ID":43013,"ELEMENT_SET_NO":999,"REV_AT_EPOCH":28173,"BSTAR":8.9604e-5,"MEAN_MOTION_DOT":1.45e-6,"MEAN_MOTION_DDOT":0}]
