THEMIS D                
1 30797U 07004D   23115.60234434 -.00000593  00000+0  00000+0 0  9991
2 30797   7.8278 296.3213 8292466 249.8368  37.0290  0.87773063 55397
THEMIS E                
1 30798U 07004E   23116.65231549 -.00000628  00000+0  00000+0 0  9991
2 30798   8.9966 314.5415 8293947 233.4764  22.8915  0.87831862 55832
FGRST (GLAST)           
1 33053U 08029A   23116.88931294  .00003288  00000+0  16067-3 0  9993
2 33053  25.5814 187.9249 0011377 213.7516 146.2296 15.13803916821216
WISE                    
1 36119U 09071A   23116.52383069  .00013127  00000+0  32565-3 0  9993
2 36119  97.2015 150.1417 0000853 171.0055 189.1207 15.40487201743565
TDRS 11                 
1 39070U 13004A   23116.70755296  .00000076  00000+0  00000+0 0  9992
2 39070   2.7293 356.2692 0006564  52.7495 245.7478  1.00274671 35182
TDRS 12                 
1 39504U 14004A   23117.06646519 -.00000274  00000+0  00000+0 0  9993
2 39504   3.6456 353.5520 0004151 121.5616  82.6672  1.00275930 33940
GPM-CORE                
1 39574U 14009C   23116.87563733  .00027702  00000+0  38875-3 0  9998
2 39574  64.9943 201.2696 0009204 265.5168  94.4927 15.56607333520370
MMS 1                   
1 40482U 15011A   23115.99992176 -.00001054  00000+0  00000+0 0  9999
2 40482  28.9525  71.2753 9075876  89.0401 109.7676  0.28571413 14192
MMS 2                   
1 40483U 15011B   23115.66658843 -.00001085  00000+0  00000+0 0  9998
2 40483  28.9584  71.3230 9076022  88.9828  75.5223  0.28573184 14256
MMS 3                   
1 40484U 15011C   23114.65339745 -.00001147  00000+0  00000+0 0  9993
2 40484  28.9473  71.4789 9075421  88.8270 331.3483  0.28577495 14166
MMS 4                   
1 40485U 15011D   23114.66034190 -.00001148  00000+0  00000+0 0  9992
2 40485  28.9513  71.4701 9076133  88.8378 332.0500  0.28575827 14161
TDRS 13                 
1 42915U 17047A   23116.81886385 -.00000105  00000+0  00000+0 0  9995
2 42915   4.0653 337.1604 0017679 107.8738  52.8288  1.00273203 20844
NOAA 20                 
1 43013U 17073A   23117.16211239  .00000145  00000+0  89604-4 0  9998
2 43013  98.7496  56.2977 0000717  95.6616 264.4641 14.19542777281735
AIM                     
1 31304U 07015A   23116.75032152  .00018546  00000+0  68333-3 0  9991
2 31304  97.8682  54.5673 0004415  40.3133 319.8432 15.27874409878821
